COSMOS 2433 (720)       
1 32275C 07052A   23257.99979167  .00000000  00000-0  00000-0 0  2576
2 32275  66.0189 349.5819 0004117 222.1287 271.6438  2.13104287    17
COSMOS 2432 (719)       
1 32276C 07052B   23257.99979167  .00000000  00000-0  00000-0 0  2577
2 32276  66.0333 349.6908 0008378 317.5074 123.2937  2.13103446    17
COSMOS 2434 (721)       
1 32393C 07065A   23257.99979167  .00000000  00000-0  00000-0 0  2571
2 32393  64.3364 225.9431 0000479  73.7502 311.2297  2.13103186    19
COSMOS 2436 (723)       
1 32395C 07065C   23257.99979167  .00000000  00000-0  00000-0 0  2573
2 32395  64.3451 226.0047 0015908 353.5628 166.9223  2.13102912    14
COSMOS 2456 (730)       
1 36111C 09070A   23257.99979167 -.00000000  00000-0  00000-0 0  2572
2 36111  64.4944 105.4402 0001856 340.5295 203.4791  2.13099499    12
COSMOS 2457 (733)       
1 36112C 09070B   23257.99979167 -.00000000  00000-0  00000-0 0  2573
2 36112  64.4784 105.3052 0006020 146.4880 168.3904  2.13101545    17
COSMOS 2460 (732)       
1 36402C 10007C   23257.99979167  .00000000  00000-0  00000-0 0  2576
2 36402  65.8811 348.2955 0001541 189.4253 113.9704  2.13106509    18
COSMOS 2476 (744)       
1 37867C 11064A   23257.99979167 -.00000000  00000-0  00000-0 0  2577
2 37867  64.7740 106.9714 0021088 231.6993 221.7113  2.13101917    14
COSMOS 2477 (745)       
1 37868C 11064B   23257.99979167 -.00000000  00000-0  00000-0 0  2578
2 37868  64.7813 107.0411 0018368 231.7678  39.5239  2.13101898    12
COSMOS 2475 (743)       
1 37869C 11064C   23257.99979167 -.00000000  00000-0  00000-0 0  2579
2 37869  64.7884 107.0534 0022417 250.2129 339.5696  2.13102292    13
COSMOS 2485 (747)       
1 39155C 13019A   23257.99979167 -.00000000  00000-0  00000-0 0  2571
2 39155  64.9341 107.4973 0021616 227.5444 270.2597  2.13102175    12
COSMOS 2492 (754)       
1 39620C 14012A   23257.99979167  .00000000  00000-0  00000-0 0  2571
2 39620  65.7647 347.9125 0011544 314.6434 217.3797  2.13103280    15
COSMOS 2500 (755)       
1 40001C 14032A   23257.99979167  .00000000  00000-0  00000-0 0  2578
2 40001  65.7030 347.7391 0008206 200.5505 191.0263  2.13106111    14
COSMOS 2501 (702K)      
1 40315C 14075A   23257.99979167  .00000000  00000-0  00000-0 0  2573
2 40315  63.6397 225.2876 0019788 211.1777 348.4672  2.13101512    11
COSMOS 2514 (751)       
1 41330C 16008A   23257.99979167  .00000000  00000-0  00000-0 0  2579
2 41330  65.5000 347.3178 0012019 208.7829   5.2535  2.13102782    18
COSMOS 2522 (752)       
1 42939C 17055A   23257.99979167  .00000000  00000-0  00000-0 0  2578
2 42939  64.1003 226.2198 0009535 243.2354  92.1533  2.13102097    17
COSMOS 2527 (756)       
1 43508C 18053A   23257.99979167 -.00000000  00000-0  00000-0 0  2571
2 43508  65.0955 107.5921 0007307 216.8415 150.3346  2.13102519    18
COSMOS 2529 (757)       
1 43687C 18086A   23257.99979167  .00000000  00000-0  00000-0 0  2574
2 43687  64.3156 226.6582 0011187 262.7842  28.0854  2.13102193    15
COSMOS 2534 (758)       
1 44299C 19030A   23257.99979167  .00000000  00000-0  00000-0 0  2574
2 44299  64.3882 226.5856 0013382 281.7968 143.3507  2.13102018    15
COSMOS 2544 (759)       
1 44850C 19088A   23257.99979167 -.00000000  00000-0  00000-0 0  2571
2 44850  65.0815 107.4347 0011157 251.2033 159.0621  2.13102287    16
COSMOS 2545 (760)       
1 45358C 20018A   23257.99979167  .00000000  00000-0  00000-0 0  2579
2 45358  64.8402 347.5541 0010322 238.2169  21.0653  2.13102787    18
COSMOS 2547 (705K)      
1 46805C 20075A   23257.99979167  .00000000  00000-0  00000-0 0  2570
2 46805  64.6156 226.1448 0008386 244.2152 230.0942  2.13102983    15
COSMOS 2557 (706K)      
1 52984C 20075A   23257.99979167  .00000000  00000-0  00000-0 0  2575
2 52984  64.7572 349.7121 0012088 275.3660  74.1768  2.13102488    19
COSMOS 2564 (761)       
1 54377C 22161A   23257.99979167  .00000000  00000-0  00000-0 0  2571
2 54377  64.7564 226.1997 0010607 226.1597  19.7546  2.13102380    15
